PERSEUS-M1              
1 40039U 14033AF  26155.05690024  .00002617  00000+0  24106-3 0  9993
2 40039  97.9641  98.9742 0011068 349.8422  10.2573 14.95587199648678
POLYITAN-1              
1 40042U 14033AJ  26156.04237671  .00021892  00000+0  69172-3 0  9990
2 40042  98.0948 181.1587 0007713 177.6399 182.4878 15.32815214651733
TIGRISAT                
1 40043U 14033AK  26156.05570919  .00002731  00000+0  31842-3 0  9991
2 40043  97.7823 306.3468 0050659 113.8962 246.7573 14.85112493643829
AEROCUBE 6A             
1 40045U 14033AM  26156.20083884  .00006130  00000+0  51626-3 0  9999
2 40045  97.7220 323.2785 0039349  57.3342 303.1666 14.97969204644824
AEROCUBE 6B             
1 40046U 14033AN  26155.08038610  .00007443  00000+0  60271-3 0  9996
2 40046  97.7216 321.9304 0039252  53.3146 307.1674 14.99411061644797
CANX-4                  
1 40055U 14034C   26155.45230034  .00001206  00000+0  16196-3 0  9990
2 40055  98.3135  30.2971 0013904  55.6030 304.6494 14.81240766642644
CANX-5                  
1 40056U 14034D   26155.45088093  .00001213  00000+0  16272-3 0  9990
2 40056  98.3138  30.3384 0013905  55.6451 304.6073 14.81257887633459
UKUBE-1                 
1 40074U 14037F   26154.54849194  .00010176  00000+0  57523-3 0  9991
2 40074  98.4235 156.3901 0001646 150.7111 209.4210 15.13321645646494
BRITE-PL2 (HEWELIUSZ)   
1 40119U 14049B   26155.25097445  .00002888  00000+0  27217-3 0  9995
2 40119  97.9085 267.1526 0014906 148.0147 212.1981 14.94543231639513
AEROCUBE 5C             
1 40965U 15058B   26155.76580023  .00003380  00000+0  30188-3 0  9999
2 40965  64.7686 301.2303 0130294  68.1429 293.3481 14.91390657363809
AEROCUBE 7              
1 40966U 15058C   26155.79752550  .00004609  00000+0  37159-3 0  9999
2 40966  64.7635 283.6208 0120049  66.6215 294.7472 14.95640365364101
FOX-1A (AO-85)          
1 40967U 15058D   26155.94350759  .00003528  00000+0  31879-3 0  9994
2 40967  64.7764 317.0315 0129804  61.3870 300.0228 14.90905473111742
SINOD-D 1               
1 40968U 15058E   26156.11124641  .00004835  00000+0  38868-3 0  9991
2 40968  64.7764 296.7275 0118377  57.9225 303.3317 14.95822852114853
SNAP-3 ALICE            
1 40970U 15058G   26156.04747368  .00124123  00000+0  16321-2 0  9995
2 40970  64.7499 145.8062 0031718  18.7385 341.4919 15.57248766114995
LMRST-SAT               
1 40971U 15058H   26155.69442147  .00003445  00000+0  31343-3 0  9998
2 40971  64.7770 314.1193 0131495  63.5191 297.9338 14.90528004111696
SNAP-3 EDDIE            
1 40972U 15058J   26156.04693225  .00122426  00000+0  15398-2 0  9996
2 40972  64.7422 136.6209 0031550  22.6605 337.5925 15.58438781117138
PROPCUBE 3              
1 40973U 15058K   26156.09527175  .00004144  00000+0  34598-3 0  9992
2 40973  64.7697 290.3129 0123532  64.7249 296.6605 14.94185013112990
BISONSAT                
1 40974U 15058L   26155.56584800  .00010620  00000+0  51960-3 0  9990
2 40974  64.7585 214.4412 0078245  52.4389 308.3809 15.15926307113708
SNAP-3 JIMI             
1 40975U 15058M   26155.67380792  .00005868  00000+0  40603-3 0  9997
2 40975  64.7657 259.3605 0105625  60.4945 300.6656 15.02182343112345
PROPCUBE 1 (FLORA)      
1 40976U 15058N   26154.63051971  .00003319  00000+0  31462-3 0  9999
2 40976  64.7756 337.2500 0130197  66.2388 295.2315 14.89150106114241
SINOD-D 3               
1 40977U 15058P   26155.92413999  .00004580  00000+0  38761-3 0  9995
2 40977  64.7738 314.1102 0118775  63.0075 298.3107 14.93931677112921
HORYU-4                 
1 41340U 16012D   26152.43486084  .00260233  00000+0  10081-2 0  9992
2 41340  30.9850 193.7734 0002292 171.6706 188.3991 15.85409012568302
RAVAN                   
1 41849U 16067B   26156.19636858  .00044363  00000+0  69733-3 0  9992
2 41849  97.9896  44.3936 0006122  63.8175 296.3705 15.53489816525831
CELTEE 1                
1 41850U 16067C   26154.57667700  .00006337  00000+0  30174-3 0  9990
2 41850  98.0684  20.2158 0000637  73.6065 286.5238 15.19540482523818
OPTICUBE 04             
1 41851U 16067D   26154.55750612  .00002250  00000+0  14407-3 0  9995
2 41851  98.0706   6.1301 0016119 158.9050 201.2846 15.09597028523119
AEROCUBE 8D             
1 41852U 16067E   26155.15786901  .00008564  00000+0  35457-3 0  9995
2 41852  98.0693  24.3388 0003856 157.4456 202.6950 15.24207534524085
AEROCUBE 8C             
1 41853U 16067F   26155.11933043  .00008936  00000+0  36699-3 0  9995
2 41853  98.0566  21.5419 0006760 103.7079 256.4909 15.24450194524073
CORVUS BC2              
1 42846U 17042X   26155.97141719  .00003984  00000+0  27523-3 0  9991
2 42846  97.4066 317.7984 0014012 147.5409 212.6683 15.06218576485225
CORVUS BC1              
1 42847U 17042Y   26156.03383088  .00003695  00000+0  25447-3 0  9999
2 42847  97.4095 318.6640 0013406 125.9681 234.2793 15.06387905485264
MAKERSAT 0              
1 43016U 17073D   26155.18094470  .00023305  00000+0  63992-3 0  9998
2 43016  97.4650  37.6017 0106721 320.0172  39.3245 15.31596076464477
